{"fetched_at":"2026-07-09T18:16:40.685Z","source":"https://celestrak.org/NORAD/elements/gp.php?GROUP=kuiper&FORMAT=JSON","constellation":"kuiper","records":[{"OBJECT_NAME":"KUIPER-00140","OBJECT_ID":"2025-228U","EPOCH":"2026-07-08T08:29:11.501376","CLASSIFICATION_TYPE":"U","MEAN_MOTION":14.79927949,"ECCENTRICITY":0.00005771,"INCLINATION":51.8977,"RA_OF_ASC_NODE":172.0875,"ARG_OF_PERICENTER":74.5874,"MEAN_ANOMALY":285.5152,"EPHEMERIS_TYPE":0,"NORAD_CAT_ID":65965,"ELEMENT_SET_NO":999,"REV_AT_EPOCH":4130,"BSTAR":0.00023230852,"MEAN_MOTION_DOT":0.0000155,"MEAN_MOTION_DDOT":0},{"OBJECT_NAME":"KUIPER-00141","OBJECT_ID":"2025-228V","EPOCH":"2026-07-08T15:05:56.609952","CLASSIFICATION_TYPE":"U","MEAN_MOTION":14.79924567,"ECCENTRICITY":0.00005751,"INCLINATION":51.901,"RA_OF_ASC_NODE":165.9229,"ARG_OF_PERICENTER":65.2531,"MEAN_ANOMALY":294.8491,"EPHEMERIS_TYPE":0,"NORAD_CAT_ID":65966,"ELEMENT_SET_NO":999,"REV_AT_EPOCH":4141,"BSTAR":0.0002440712,"MEAN_MOTION_DOT":0.0000164,"MEAN_MOTION_DDOT":0},{"OBJECT_NAME":"KUIPER-00146","OBJECT_ID":"2025-228W","EPOCH":"2026-07-08T07:44:28.631904","CLASSIFICATION_TYPE":"U","MEAN_MOTION":14.79929103,"ECCENTRICITY":0.00005457,"INCLINATION":51.9008,"RA_OF_ASC_NODE":169.7873,"ARG_OF_PERICENTER":56.724,"MEAN_ANOMALY":303.3774,"EPHEMERIS_TYPE":0,"NORAD_CAT_ID":65967,"ELEMENT_SET_NO":999,"REV_AT_EPOCH":4133,"BSTAR":0.00012410037,"MEAN_MOTION_DOT":0.00000725,"MEAN_MOTION_DDOT":0},{"OBJECT_NAME":"KUIPER-00149","OBJECT_ID":"2025-228X","EPOCH":"2026-07-08T15:09:45.489600","CLASSIFICATION_TYPE":"U","MEAN_MOTION":14.79930696,"ECCENTRICITY":0.00006177,"INCLINATION":51.9,"RA_OF_ASC_NODE":163.3056,"ARG_OF_PERICENTER":72.1686,"MEAN_ANOMALY":287.9344,"EPHEMERIS_TYPE":0,"NORAD_CAT_ID":65968,"ELEMENT_SET_NO":999,"REV_AT_EPOCH":4145,"BSTAR":-0.00047676485,"MEAN_MOTION_DOT":-0.00003853,"MEAN_MOTION_DDOT":0},{"OBJECT_NAME":"KUIPER-00154","OBJECT_ID":"2025-228Y","EPOCH":"2026-07-08T22:31:17.065344","CLASSIFICATION_TYPE":"U","MEAN_MOTION":14.79931182,"ECCENTRICITY":0.00006297,"INCLINATION":51.8986,"RA_OF_ASC_NODE":159.443,"ARG_OF_PERICENTER":65.9358,"MEAN_ANOMALY":294.1671,"EPHEMERIS_TYPE":0,"NORAD_CAT_ID":65969,"ELEMENT_SET_NO":999,"REV_AT_EPOCH":4153,"BSTAR":0.00016280642,"MEAN_MOTION_DOT":0.0000102,"MEAN_MOTION_DDOT":0},{"OBJECT_NAME":"KUIPER-00157","OBJECT_ID":"2025-228Z","EPOCH":"2026-07-08T22:00:01.999584","CLASSIFICATION_TYPE":"U","MEAN_MOTION":14.81179844,"ECCENTRICITY":0.00008105,"INCLINATION":51.9004,"RA_OF_ASC_NODE":162.1437,"ARG_OF_PERICENTER":42.8348,"MEAN_ANOMALY":232.7648,"EPHEMERIS_TYPE":0,"NORAD_CAT_ID":65970,"ELEMENT_SET_NO":999,"REV_AT_EPOCH":512,"BSTAR":0.0021952841,"MEAN_MOTION_DOT":0.00017061,"MEAN_MOTION_DDOT":0},{"OBJECT_NAME":"KUIPER-00144","OBJECT_ID":"2025-301A","EPOCH":"2026-07-08T10:43:35.322240","CLASSIFICATION_TYPE":"U","MEAN_MOTION":14.79924729,"ECCENTRICITY":0.0000468,"INCLINATION":51.9005,"RA_OF_ASC_NODE":241.631,"ARG_OF_PERICENTER":95.0766,"MEAN_ANOMALY":265.025,"EPHEMERIS_TYPE":0,"NORAD_CAT_ID":67133,"ELEMENT_SET_NO":999,"REV_AT_EPOCH":3175,"BSTAR":0.00028966254,"MEAN_MOTION_DOT":0.00001987,"MEAN_MOTION_DDOT":0},{"OBJECT_NAME":"KUIPER-00164","OBJECT_ID":"2025-301B","EPOCH":"2026-07-08T11:25:59.989728","CLASSIFICATION_TYPE":"U","MEAN_MOTION":14.76533266,"ECCENTRICITY":0.00009017,"INCLINATION":51.9023,"RA_OF_ASC_NODE":253.7513,"ARG_OF_PERICENTER":329.6987,"MEAN_ANOMALY":30.3922,"EPHEMERIS_TYPE":0,"NORAD_CAT_ID":67134,"ELEMENT_SET_NO":999,"REV_AT_EPOCH":3176,"BSTAR":-0.00099135085,"MEAN_MOTION_DOT":-0.00007181,"MEAN_MOTION_DDOT":0},{"OBJECT_NAME":"KUIPER-00175","OBJECT_ID":"2025-301C","EPOCH":"2026-07-08T22:00:01.999584","CLASSIFICATION_TYPE":"U","MEAN_MOTION":14.82365224,"ECCENTRICITY":0.00025316,"INCLINATION":51.8992,"RA_OF_ASC_NODE":234.5504,"ARG_OF_PERICENTER":82.0422,"MEAN_ANOMALY":34.5069,"EPHEMERIS_TYPE":0,"NORAD_CAT_ID":67135,"ELEMENT_SET_NO":999,"REV_AT_EPOCH":546,"BSTAR":-0.0044223693,"MEAN_MOTION_DOT":-0.00035774,"MEAN_MOTION_DDOT":0},{"OBJECT_NAME":"KUIPER-00179","OBJECT_ID":"2025-301D","EPOCH":"2026-07-08T10:28:02.838144","CLASSIFICATION_TYPE":"U","MEAN_MOTION":14.79920433,"ECCENTRICITY":0.00001049,"INCLINATION":51.8994,"RA_OF_ASC_NODE":251.6518,"ARG_OF_PERICENTER":43.8686,"MEAN_ANOMALY":316.2285,"EPHEMERIS_TYPE":0,"NORAD_CAT_ID":67136,"ELEMENT_SET_NO":999,"REV_AT_EPOCH":3179,"BSTAR":0.000059554616,"MEAN_MOTION_DOT":0.00000233,"MEAN_MOTION_DDOT":0},{"OBJECT_NAME":"KUIPER-00181","OBJECT_ID":"2025-301E","EPOCH":"2026-07-06T12:45:40.277088","CLASSIFICATION_TYPE":"U","MEAN_MOTION":14.8011676,"ECCENTRICITY":0.00007203,"INCLINATION":51.9019,"RA_OF_ASC_NODE":272.6059,"ARG_OF_PERICENTER":84.6908,"MEAN_ANOMALY":275.4136,"EPHEMERIS_TYPE":0,"NORAD_CAT_ID":67137,"ELEMENT_SET_NO":999,"REV_AT_EPOCH":3131,"BSTAR":0.0030074041,"MEAN_MOTION_DOT":0.00022884,"MEAN_MOTION_DDOT":0},{"OBJECT_NAME":"KUIPER-00183","OBJECT_ID":"2025-301F","EPOCH":"2026-07-08T11:48:59.804640","CLASSIFICATION_TYPE":"U","MEAN_MOTION":14.92818543,"ECCENTRICITY":0.00096755,"INCLINATION":51.8929,"RA_OF_ASC_NODE":236.8108,"ARG_OF_PERICENTER":103.5826,"MEAN_ANOMALY":256.622,"EPHEMERIS_TYPE":0,"NORAD_CAT_ID":67138,"ELEMENT_SET_NO":999,"REV_AT_EPOCH":3199,"BSTAR":0.00026155464,"MEAN_MOTION_DOT":0.00002486,"MEAN_MOTION_DDOT":0},{"OBJECT_NAME":"KUIPER-00184","OBJECT_ID":"2025-301G","EPOCH":"2026-07-08T13:01:37.986528","CLASSIFICATION_TYPE":"U","MEAN_MOTION":14.79931846,"ECCENTRICITY":0.00009254,"INCLINATION":51.8998,"RA_OF_ASC_NODE":246.18,"ARG_OF_PERICENTER":222.7127,"MEAN_ANOMALY":137.3763,"EPHEMERIS_TYPE":0,"NORAD_CAT_ID":67139,"ELEMENT_SET_NO":999,"REV_AT_EPOCH":3197,"BSTAR":8.32782e-7,"MEAN_MOTION_DOT":-0.00000215,"MEAN_MOTION_DDOT":0},{"OBJECT_NAME":"KUIPER-00186","OBJECT_ID":"2025-301H","EPOCH":"2026-07-08T04:28:17.252256","CLASSIFICATION_TYPE":"U","MEAN_MOTION":14.79924374,"ECCENTRICITY":0.00004922,"INCLINATION":51.9012,"RA_OF_ASC_NODE":265.301,"ARG_OF_PERICENTER":91.2933,"MEAN_ANOMALY":268.8086,"EPHEMERIS_TYPE":0,"NORAD_CAT_ID":67140,"ELEMENT_SET_NO":999,"REV_AT_EPOCH":3140,"BSTAR":0.000015992314,"MEAN_MOTION_DOT":-9.9e-7,"MEAN_MOTION_DDOT":0},{"OBJECT_NAME":"KUIPER-00187","OBJECT_ID":"2025-301J","EPOCH":"2026-07-08T06:01:38.569440","CLASSIFICATION_TYPE":"U","MEAN_MOTION":14.79917126,"ECCENTRICITY":0.00005874,"INCLINATION":51.9021,"RA_OF_ASC_NODE":267.5373,"ARG_OF_PERICENTER":100.0498,"MEAN_ANOMALY":260.0531,"EPHEMERIS_TYPE":0,"NORAD_CAT_ID":67141,"ELEMENT_SET_NO":999,"REV_AT_EPOCH":3137,"BSTAR":-0.00037335352,"MEAN_MOTION_DOT":-0.00003065,"MEAN_MOTION_DDOT":0},{"OBJECT_NAME":"KUIPER-00188","OBJECT_ID":"2025-301K","EPOCH":"2026-07-08T09:17:59.387424","CLASSIFICATION_TYPE":"U","MEAN_MOTION":14.7992956,"ECCENTRICITY":0.00005438,"INCLINATION":51.9009,"RA_OF_ASC_NODE":234.5207,"ARG_OF_PERICENTER":98.6803,"MEAN_ANOMALY":261.4221,"EPHEMERIS_TYPE":0,"NORAD_CAT_ID":67142,"ELEMENT_SET_NO":999,"REV_AT_EPOCH":3184,"BSTAR":0.0002080328,"MEAN_MOTION_DOT":0.00001365,"MEAN_MOTION_DDOT":0}]}
